OSCAR 7 (AO-7)          
1 07530U 74089B   19324.77307010 -.00000026  00000-0  12135-3 0  9991
2 07530 101.7682 290.9641 0012510  48.3019  69.8913 12.53640823 59719
UOSAT 2 (UO-11)         
1 14781U 84021B   19325.14561119  .00000076  00000-0  15367-4 0  9993
2 14781  97.6014 342.4299 0008940 159.7914 200.3656 14.83121577921801
LUSAT (LO-19)           
1 20442U 90005G   19324.82444075 -.00000000  00000-0  16298-4 0  9990
2 20442  98.6657 266.6710 0012722  55.2409 304.9970 14.32938325558596
ITAMSAT (IO-26)         
1 22826U 93061D   19325.21054781  .00000010  00000-0  21974-4 0  9995
2 22826  98.9097 317.4634 0007935 253.1495 106.8817 14.30405911364388
RADIO ROSTO (RS-15)     
1 23439U 94085A   19324.81301127 -.00000034  00000-0  24550-3 0  9996
2 23439  64.8159 225.2712 0145538  82.8489 278.8956 11.27568700 25382
JAS-2 (FO-29)           
1 24278U 96046B   19324.83254322 -.00000043  00000-0 -75556-5 0  9998
2 24278  98.5611  97.3754 0350126 197.7028 161.1655 13.53094848148532
TECHSAT 1B (GO-32)      
1 25397U 98043D   19324.79939180 -.00000009  00000-0  15219-4 0  9997
2 25397  98.7044 263.1576 0000861   4.8992 355.2195 14.23674591109728
ISS (ZARYA)             
1 25544U 98067A   19325.32696235  .00000269  00000-0  12734-4 0  9994
2 25544  51.6461 302.1970 0006276 305.7254 200.8095 15.50018869199639
PCSAT (NO-44)           
1 26931U 01043C   19324.43000755 -.00000010  00000-0  28000-4 0  9998
2 26931  67.0508 324.3763 0007429 265.3839  94.6414 14.30559154947101
SAUDISAT 1C (SO-50)     
1 27607U 02058C   19324.88476619 -.00000019  00000-0  18209-4 0  9990
2 27607  64.5548 295.1073 0072018 226.1703 133.3432 14.75589930909808
CUTE-1 (CO-55)          
1 27844U 03031E   19324.50144850  .00000055  00000-0  44642-4 0  9992
2 27844  98.6844 330.4032 0008975 306.9384  53.0971 14.22206286850251
CUBESAT XI-IV (CO-57)   
1 27848U 03031J   19324.46743959  .00000043  00000-0  39272-4 0  9996
2 27848  98.6917 330.8999 0009005 320.1000  39.9515 14.21797721850109
MOZHAYETS 4 (RS-22)     
1 27939U 03042A   19325.03587242  .00000067  00000-0  20683-4 0  9996
2 27939  98.0629  98.0345 0011717 298.4663  61.5347 14.66818743863315
CUBESAT XI-V            
1 28895U 05043F   19324.82569876  .00000153  00000-0  38235-4 0  9998
2 28895  97.9812 102.4524 0016047 218.4792 141.5268 14.63712540749942
CUTE-1.7+APD II (CO-65) 
1 32785U 08021C   19324.85364798  .00000260  00000-0  33592-4 0  9999
2 32785  97.5582 317.3211 0014536 106.5423 253.7392 14.88376693626696
DELFI-C3 (DO-64)        
1 32789U 08021G   19324.91543193  .00000925  00000-0  65285-4 0  9990
2 32789  97.4467   9.7682 0010931 319.6238  40.4177 15.07267826630248
SEEDS II (CO-66)        
1 32791U 08021J   19325.01254615  .00000473  00000-0  53248-4 0  9997
2 32791  97.5323 323.5741 0014854  81.4363 278.8538 14.90914244627256
YUBILEINY (RS-30)       
1 32953U 08025A   19325.05892620  .00000021  00000-0  75656-4 0  9995
2 32953  82.5069  48.1367 0020101 149.1098 211.1171 12.43092263521610
KKS-1 (KISEKI)          
1 33499U 09002H   19324.90588920  .00000104  00000-0  23382-4 0  9996
2 33499  98.3361 168.4825 0010358  74.5428 285.6923 14.75480753581688
SWISSCUBE               
1 35932U 09051B   19325.01225525  .00000142  00000-0  43090-4 0  9996
2 35932  98.5995 135.6775 0008435  54.6013 305.5971 14.56331298539382
BEESAT-1                
1 35933U 09051C   19325.14341553  .00000113  00000-0  36461-4 0  9993
2 35933  98.6009 137.6324 0006790  66.6701 293.5209 14.56414511539516
ITUPSAT1                
1 35935U 09051E   19325.15353966  .00000127  00000-0  40280-4 0  9996
2 35935  98.6118 137.8679 0009073  63.8074 296.4055 14.55568526539250
XIWANG-1 (HOPE-1)       
1 36122U 09072B   19324.70914748 -.00000055  00000-0 -34022-4 0  9998
2 36122 100.0799 319.8415 0007714 352.7775   7.3223 13.16352001477274
JUGNU                   
1 37839U 11058B   19324.71995253  .00000305  00000-0  20759-4 0  9990
2 37839  19.9604 114.6532 0018916 236.3088 239.5829 14.12664588419094
SRMSAT                  
1 37841U 11058D   19324.92350973  .00000296  00000-0  17693-4 0  9992
2 37841  19.9701 173.4116 0011897 101.9613  26.6853 14.10643650418544
M-CUBED & EXP-1 PRIME   
1 37855U 11061F   19324.77477366  .00001827  00000-0  98183-4 0  9994
2 37855 101.7225 300.0419 0172545 337.0291  22.3269 15.05799406439640
STRAND-1                
1 39090U 13009E   19324.84757688  .00000031  00000-0  26154-4 0  9992
2 39090  98.4715 168.0963 0009021 181.2097 178.9068 14.35105871352622
SOMP                    
1 39134U 13015E   19324.86594514  .00001331  00000-0  68990-4 0  9995
2 39134  64.8632 237.5831 0038004 277.6013  82.0799 15.20514461363805
BEESAT-3                
1 39135U 13015F   19324.80261914  .00001066  00000-0  61545-4 0  9999
2 39135  64.8670 258.2908 0040553 282.4385  77.2205 15.17742663363396
BEESAT-2                
1 39136U 13015G   19324.83299375  .00001138  00000-0  66475-4 0  9992
2 39136  64.8689 262.4710 0030352 287.6018  72.1794 15.17157611363313
ZACUBE-1 (TSHEPISOSAT)  
1 39417U 13066B   19325.01822118  .00000208  00000-0  32543-4 0  9994
2 39417  97.5617 329.7863 0057581 244.0886 115.4386 14.81180521324038
GOMX-1                  
1 39430U 13066Q   19325.20408852  .00000172  00000-0  39744-4 0  9995
2 39430  97.7659 271.6633 0152004 123.5984 237.9835 14.59310514319289
CUBEBUG-2 (LO-74)       
1 39440U 13066AA  19325.21065446  .00000234  00000-0  39674-4 0  9996
2 39440  97.6127 314.5487 0078947 300.3497  58.9923 14.75919296322913
FUNCUBE-1 (AO-73)       
1 39444U 13066AE  19324.72989167  .00000269  00000-0  39399-4 0  9992
2 39444  97.5583 331.6017 0056762 238.0758 121.4928 14.82012721322308
UWE-3                   
1 39446U 13066AG  19324.94843557  .00000223  00000-0  36396-4 0  9994
2 39446  97.5865 321.4627 0068507 273.5494  85.7884 14.78453306321617
SPROUT                  
1 39770U 14029E   19325.16453630  .00000587  00000-0  70860-4 0  9995
2 39770  97.8922  67.5172 0007872 299.9803  60.0598 14.87509261297949
UNISAT-6                
1 40012U 14033C   19324.85784000  .00000151  00000-0  29920-4 0  9992
2 40012  97.7339 184.6022 0057465 318.2705  41.4128 14.74034415291547
DUCHIFAT-1              
1 40021U 14033M   19324.87107224  .00000510  00000-0  57807-4 0  9995
2 40021  97.9293 250.0027 0011484 258.2573 101.7357 14.90740802294660
QB50P1                  
1 40025U 14033R   19325.00270849  .00000301  00000-0  38002-4 0  9993
2 40025  97.9074 244.4281 0011023 269.2165  90.7789 14.89023199294430
NUDT-PHONESAT           
1 40900U 15049B   19325.15436919  .00001865  00000-0  81481-4 0  9996
2 40900  97.4365 333.0032 0012885   6.8514  57.7510 15.23294454231326
ZDPS 2A                 
1 40901U 15049C   19325.20444873  .00000847  00000-0  44994-4 0  9998
2 40901  97.4616 328.8136 0014297  27.7719 107.1763 15.17937885230820
ZDPS 2B                 
1 40902U 15049D   19325.17833868  .00000935  00000-0  49469-4 0  9991
2 40902  97.4584 326.1613 0014104  25.5126 103.1023 15.17826292230791
XW-2A                   
1 40903U 15049E   19325.19044955  .00001554  00000-0  37989-4 0  9997
2 40903  97.3191   8.7080 0012194 308.2373 136.1598 15.42334771234216
KAITUO 1A               
1 40904U 15049F   19325.22895560  .00000180  00000-0  12990-4 0  9997
2 40904  97.4719 324.6264 0015579  33.9504  29.4164 15.15507845230556
2015-049G               
1 40905U 15049G   19325.15576716  .00000061  00000-0  68855-5 0  9999
2 40905  97.4773 321.9456 0016605  29.3325  29.9515 15.14392021230407
XW-2C                   
1 40906U 15049H   19325.06680432  .00000661  00000-0  37965-4 0  9994
2 40906  97.4726 324.6240 0015555  26.3538  44.8359 15.15829520230539
XW-2D                   
1 40907U 15049J   19325.15545083  .00000418  00000-0  25176-4 0  9998
2 40907  97.4706 324.3948 0014845  23.1088  41.6851 15.16029690230562
LILACSAT-2              
1 40908U 15049K   19325.19841213  .00000498  00000-0  31077-4 0  9992
2 40908  97.4846 323.0790 0016713  30.1985 101.6446 15.13896421230332
XW-2F                   
1 40910U 15049M   19325.10071392  .00000750  00000-0  40676-4 0  9995
2 40910  97.4660 326.5831 0015068  15.3110  57.5811 15.17542638230584
XW-2B                   
1 40911U 15049N   19325.20742412  .00000761  00000-0  43048-4 0  9993
2 40911  97.4725 325.1212 0014789  24.0855 106.5125 15.15961204230469
KAITUO 1B               
1 40912U 15049P   19325.15604031  .00000974  00000-0  48494-4 0  9998
2 40912  97.4503 330.5238 0014862 356.2470  68.1452 15.19887005230924
TIANWANG 1C (TW-1C)     
1 40926U 15051B   19325.09613970  .00012267  00000-0  15862-3 0  9991
2 40926  97.1168  11.2112 0008414 142.6972 271.5568 15.59031121234349
TIANWANG 1A (TW-1A)     
1 40928U 15051D   19325.19146122  .00002240  00000-0  55240-4 0  9999
2 40928  97.1314 353.0041 0009518 222.6538 205.7547 15.41545410233128
LAPAN-A2                
1 40931U 15052B   19324.69785557 -.00020420  00000-0 -29507-2 0  9996
2 40931   5.9963  31.2247 0013118 192.9224 166.9491 14.76583141224210
E-ST@R-II               
1 41459U 16025D   19325.25333910  .00001567  00000-0  83343-4 0  9997
2 41459  98.1006  59.5866 0166846 194.9579 164.6675 15.05823467195958
AAUSAT 4                
1 41460U 16025E   19325.09502728  .00002283  00000-0  11667-3 0  9991
2 41460  98.0966  61.0741 0156164 186.7584 173.1554 15.07856493196084
NUSAT-1 (FRESCO)        
1 41557U 16033B   19325.18330368  .00001277  00000-0  50030-4 0  9996
2 41557  97.4135  51.7662 0015317 106.9006 253.3914 15.27543265193829
BEESAT-4                
1 41619U 16040W   19324.80651101  .00001429  00000-0  62778-4 0  9993
2 41619  97.3498  24.0100 0010945 189.6668 170.4360 15.23474836177473
CAS-2T & KS-1Q          
1 41847U 16066G   19325.12323049  .00000066  00000-0  19696-4 0  9994
2 41847  98.6868   8.1812 0366719 132.3258 230.9622 14.38021022159335
NAYIF-1 (EO-88)         
1 42017U 17008BX  19324.87445576  .00001557  00000-0  63537-4 0  9991
2 42017  97.3869  30.2557 0005881 358.1933   1.9283 15.25908731153580
MAX VALIER SAT          
1 42778U 17036P   19324.87234399  .00000957  00000-0  44507-4 0  9994
2 42778  97.3358  18.9731 0013366  45.6008 314.6321 15.22257948133840
RADFXSAT (FOX-1B)       
1 43017U 17073E   19324.29701366  .00000960  00000-0  79836-4 0  9998
2 43017  97.7234 239.6057 0258244  15.2491 345.6319 14.78702268108104
FOX-1D (AO-92)          
1 43137U 18004AC  19324.89032417  .00001047  00000-0  46540-4 0  9999
2 43137  97.4718  32.2239 0010838  75.2591 284.9846 15.23723105103134
ES'HAIL 2               
1 43700U 18090A   19324.84007552  .00000143  00000-0  00000-0 0  9990
2 43700   0.0149 285.1236 0001816 350.1242 112.5884  1.00274153  3601
FOX-1CLIFF (AO-95)      
1 43770U 18099N   19324.66855984  .00000485  00000-0  49702-4 0  9991
2 43770  97.7309  34.4398 0014954 171.7944 188.3523 14.94853333 52577
ITASAT 1                
1 43786U 18099AE  19325.18282627 -.00000160  00000-0 -92695-5 0  9996
2 43786  97.7326  35.2147 0015634 164.6034 195.5665 14.95213278 52667
JY1SAT (JO-97)          
1 43803U 18099AX  19324.88556162  .00000756  00000-0  73612-4 0  9996
2 43803  97.7285  34.7961 0015688 165.6544 194.5125 14.95362897 52612
PSAT2 (NO-104)          
1 44354U 19036R   19324.35037453  .00009156  00000-0  13748-3 0  9995
2 44354  28.5342 316.3684 0380196 233.7269 122.7623 14.99383514 22213
BRICSAT2 (NO-103)       
1 44355U 19036S   19324.33688655  .00015725  00000-0  23720-3 0  9990
2 44355  28.5344 315.2949 0372676 235.5014 120.9843 15.01203131 22214
JAISAT-1                
1 44419U 19038F   19325.11527740  .00000840  00000-0  51817-4 0  9998
2 44419  97.5101 284.6099 0022974 129.3615 230.9655 15.12433538 20957
